[{"OBJECT_NAME":"STARLINK-30935","OBJECT_ID":"2023-183U","EPOCH":"2026-03-09T22:00:01.999584","MEAN_MOTION":15.26713327,"ECCENTRICITY":0.00014788,"INCLINATION":43.0006,"RA_OF_ASC_NODE":40.315,"ARG_OF_PERICENTER":261.288,"MEAN_ANOMALY":298.475,"EPHEMERIS_TYPE":0,"CLASSIFICATION_TYPE":"U","NORAD_CAT_ID":58455,"ELEMENT_SET_NO":999,"REV_AT_EPOCH":578,"BSTAR":0.0016210219,"MEAN_MOTION_DOT":0.00043443,"MEAN_MOTION_DDOT":0},{"OBJECT_NAME":"OBJECT BD","OBJECT_ID":"2025-313BD","EPOCH":"2026-03-09T15:06:44.992224","MEAN_MOTION":15.3000236,"ECCENTRICITY":0.00072867,"INCLINATION":97.397,"RA_OF_ASC_NODE":145.285,"ARG_OF_PERICENTER":333.4514,"MEAN_ANOMALY":26.6352,"EPHEMERIS_TYPE":0,"CLASSIFICATION_TYPE":"U","NORAD_CAT_ID":67299,"ELEMENT_SET_NO":999,"REV_AT_EPOCH":1083,"BSTAR":0.0027633805,"MEAN_MOTION_DOT":0.0008101,"MEAN_MOTION_DDOT":0}]
